[{"OBJECT_NAME":"STARLINK-3548","OBJECT_ID":"2022-022N","EPOCH":"2026-03-09T23:24:03.438720","MEAN_MOTION":15.08838389,"ECCENTRICITY":0.00014593,"INCLINATION":53.2191,"RA_OF_ASC_NODE":7.7626,"ARG_OF_PERICENTER":118.0377,"MEAN_ANOMALY":242.0763,"EPHEMERIS_TYPE":0,"CLASSIFICATION_TYPE":"U","NORAD_CAT_ID":51864,"ELEMENT_SET_NO":999,"REV_AT_EPOCH":22320,"BSTAR":3.347674e-6,"MEAN_MOTION_DOT":-2.35e-6,"MEAN_MOTION_DDOT":0},{"OBJECT_NAME":"OBJECT K","OBJECT_ID":"2017-042K","EPOCH":"2026-03-09T21:28:20.621568","MEAN_MOTION":15.07994228,"ECCENTRICITY":0.00097557,"INCLINATION":97.4104,"RA_OF_ASC_NODE":233.8721,"ARG_OF_PERICENTER":49.2775,"MEAN_ANOMALY":310.9299,"EPHEMERIS_TYPE":0,"CLASSIFICATION_TYPE":"U","NORAD_CAT_ID":42834,"ELEMENT_SET_NO":999,"REV_AT_EPOCH":47201,"BSTAR":0.00042776846,"MEAN_MOTION_DOT":6.528e-5,"MEAN_MOTION_DDOT":0}]
